{
  "type": "FeatureCollection",
  "features": [
    {
      "type": "Feature",
      "properties": {
        "norad_id": 66569,
        "name": "STARLINK-35835",
        "group": "last-30-days",
        "lat": 42.7861616764613,
        "lon": -178.65275898479928,
        "alt_km": 409.7315059435414,
        "timestamp": "2025-12-18T23:35:47.780350+00:00",
        "meta_object_name": "STARLINK-35835",
        "meta_object_id": "2025-268N",
        "meta_epoch": "2025-12-18T13:54:49.790880",
        "meta_mean_motion": 15.50610591,
        "meta_eccentricity": 0.00025838,
        "meta_inclination": 43.0035,
        "meta_ra_of_asc_node": 86.9888,
        "meta_arg_of_pericenter": 263.7698,
        "meta_mean_anomaly": 96.2868,
        "meta_ephemeris_type": 0,
        "meta_classification_type": "U",
        "meta_norad_cat_id": 66569,
        "meta_element_set_no": 999,
        "meta_rev_at_epoch": 553,
        "meta_bstar": 0.0010402958,
        "meta_mean_motion_dot": 0.00061239,
        "meta_mean_motion_ddot": 0,
        "tle_line1": "1 66569U 25268N   25352.57974295  .00061239  00000+0  10403-2 0  9990",
        "tle_line2": "2 66569  43.0035  86.9888 0002583 263.7698  96.2868 15.50610591  5530"
      },
      "geometry": {
        "type": "Point",
        "coordinates": [
          -178.65275898479928,
          42.7861616764613
        ]
      }
    },
    {
      "type": "Feature",
      "properties": {
        "norad_id": 66570,
        "name": "STARLINK-35834",
        "group": "last-30-days",
        "lat": 42.59812402630668,
        "lon": -175.99847614284275,
        "alt_km": 409.18244259127096,
        "timestamp": "2025-12-18T23:35:47.780360+00:00",
        "meta_object_name": "STARLINK-35834",
        "meta_object_id": "2025-268P",
        "meta_epoch": "2025-12-18T13:54:20.396736",
        "meta_mean_motion": 15.50622128,
        "meta_eccentricity": 0.00019453,
        "meta_inclination": 43.0029,
        "meta_ra_of_asc_node": 86.986,
        "meta_arg_of_pericenter": 272.5695,
        "meta_mean_anomaly": 87.4943,
        "meta_ephemeris_type": 0,
        "meta_classification_type": "U",
        "meta_norad_cat_id": 66570,
        "meta_element_set_no": 999,
        "meta_rev_at_epoch": 553,
        "meta_bstar": 0.001951259,
        "meta_mean_motion_dot": 0.0011602,
        "meta_mean_motion_ddot": 0,
        "tle_line1": "1 66570U 25268P   25352.57940274  .00116020  00000+0  19513-2 0  9992",
        "tle_line2": "2 66570  43.0029  86.9860 0001945 272.5695  87.4943 15.50622128  5536"
      },
      "geometry": {
        "type": "Point",
        "coordinates": [
          -175.99847614284275,
          42.59812402630668
        ]
      }
    },
    {
      "type": "Feature",
      "properties": {
        "norad_id": 66571,
        "name": "STARLINK-35836",
        "group": "last-30-days",
        "lat": 42.34976737366333,
        "lon": -173.3443311718922,
        "alt_km": 409.83186300110265,
        "timestamp": "2025-12-18T23:35:47.780370+00:00",
        "meta_object_name": "STARLINK-35836",
        "meta_object_id": "2025-268Q",
        "meta_epoch": "2025-12-18T13:53:50.126496",
        "meta_mean_motion": 15.50657425,
        "meta_eccentricity": 0.00029402,
        "meta_inclination": 43.005,
        "meta_ra_of_asc_node": 86.9833,
        "meta_arg_of_pericenter": 265.2531,
        "meta_mean_anomaly": 94.7993,
        "meta_ephemeris_type": 0,
        "meta_classification_type": "U",
        "meta_norad_cat_id": 66571,
        "meta_element_set_no": 999,
        "meta_rev_at_epoch": 553,
        "meta_bstar": 0.0014216549,
        "meta_mean_motion_dot": 0.00084205,
        "meta_mean_motion_ddot": 0,
        "tle_line1": "1 66571U 25268Q   25352.57905239  .00084205  00000+0  14217-2 0  9990",
        "tle_line2": "2 66571  43.0050  86.9833 0002940 265.2531  94.7993 15.50657425  5539"
      },
      "geometry": {
        "type": "Point",
        "coordinates": [
          -173.3443311718922,
          42.34976737366333
        ]
      }
    },
    {
      "type": "Feature",
      "properties": {
        "norad_id": 66572,
        "name": "STARLINK-35870",
        "group": "last-30-days",
        "lat": 42.059912793837725,
        "lon": -170.91417942574455,
        "alt_km": 409.4063085355883,
        "timestamp": "2025-12-18T23:35:47.780380+00:00",
        "meta_object_name": "STARLINK-35870",
        "meta_object_id": "2025-268R",
        "meta_epoch": "2025-12-18T13:53:21.068448",
        "meta_mean_motion": 15.50616693,
        "meta_eccentricity": 0.00020258,
        "meta_inclination": 43.0005,
        "meta_ra_of_asc_node": 86.9812,
        "meta_arg_of_pericenter": 264.3223,
        "meta_mean_anomaly": 95.7406,
        "meta_ephemeris_type": 0,
        "meta_classification_type": "U",
        "meta_norad_cat_id": 66572,
        "meta_element_set_no": 999,
        "meta_rev_at_epoch": 553,
        "meta_bstar": 0.0011750785,
        "meta_mean_motion_dot": 0.00069302,
        "meta_mean_motion_ddot": 0,
        "tle_line1": "1 66572U 25268R   25352.57871607  .00069302  00000+0  11751-2 0  9993",
        "tle_line2": "2 66572  43.0005  86.9812 0002025 264.3223  95.7406 15.50616693  5531"
      },
      "geometry": {
        "type": "Point",
        "coordinates": [
          -170.91417942574455,
          42.059912793837725
        ]
      }
    },
    {
      "type": "Feature",
      "properties": {
        "norad_id": 66573,
        "name": "STARLINK-35650",
        "group": "last-30-days",
        "lat": 41.70726759127969,
        "lon": -168.37968479310018,
        "alt_km": 409.75704903861424,
        "timestamp": "2025-12-18T23:35:47.780390+00:00",
        "meta_object_name": "STARLINK-35650",
        "meta_object_id": "2025-268S",
        "meta_epoch": "2025-12-18T13:52:51.222432",
        "meta_mean_motion": 15.50616694,
        "meta_eccentricity": 0.00024451,
        "meta_inclination": 43.0037,
        "meta_ra_of_asc_node": 86.9781,
        "meta_arg_of_pericenter": 266.7745,
        "meta_mean_anomaly": 93.2835,
        "meta_ephemeris_type": 0,
        "meta_classification_type": "U",
        "meta_norad_cat_id": 66573,
        "meta_element_set_no": 999,
        "meta_rev_at_epoch": 553,
        "meta_bstar": 0.0010622596,
        "meta_mean_motion_dot": 0.00062563,
        "meta_mean_motion_ddot": 0,
        "tle_line1": "1 66573U 25268S   25352.57837063  .00062563  00000+0  10623-2 0  9991",
        "tle_line2": "2 66573  43.0037  86.9781 0002445 266.7745  93.2835 15.50616694  5533"
      },
      "geometry": {
        "type": "Point",
        "coordinates": [
          -168.37968479310018,
          41.70726759127969
        ]
      }
    },
    {
      "type": "Feature",
      "properties": {
        "norad_id": 66574,
        "name": "STARLINK-35812",
        "group": "last-30-days",
        "lat": 41.33359229185741,
        "lon": -166.10161681849175,
        "alt_km": 408.85382473527807,
        "timestamp": "2025-12-18T23:35:47.780400+00:00",
        "meta_object_name": "STARLINK-35812",
        "meta_object_id": "2025-268T",
        "meta_epoch": "2025-12-18T13:52:23.853504",
        "meta_mean_motion": 15.50580135,
        "meta_eccentricity": 9.911e-05,
        "meta_inclination": 43.0017,
        "meta_ra_of_asc_node": 86.9742,
        "meta_arg_of_pericenter": 254.2055,
        "meta_mean_anomaly": 105.8696,
        "meta_ephemeris_type": 0,
        "meta_classification_type": "U",
        "meta_norad_cat_id": 66574,
        "meta_element_set_no": 999,
        "meta_rev_at_epoch": 553,
        "meta_bstar": 0.0014172394,
        "meta_mean_motion_dot": 0.00083697,
        "meta_mean_motion_ddot": 0,
        "tle_line1": "1 66574U 25268T   25352.57805386  .00083697  00000+0  14172-2 0  9999",
        "tle_line2": "2 66574  43.0017  86.9742 0000991 254.2055 105.8696 15.50580135  5534"
      },
      "geometry": {
        "type": "Point",
        "coordinates": [
          -166.10161681849175,
          41.33359229185741
        ]
      }
    },
    {
      "type": "Feature",
      "properties": {
        "norad_id": 66575,
        "name": "STARLINK-35810",
        "group": "last-30-days",
        "lat": 40.824956203733926,
        "lon": -163.4032130207536,
        "alt_km": 408.98143690752113,
        "timestamp": "2025-12-18T23:35:47.780410+00:00",
        "meta_object_name": "STARLINK-35810",
        "meta_object_id": "2025-268U",
        "meta_epoch": "2025-12-18T13:51:52.332192",
        "meta_mean_motion": 15.50624193,
        "meta_eccentricity": 0.0001255,
        "meta_inclination": 42.9978,
        "meta_ra_of_asc_node": 86.9711,
        "meta_arg_of_pericenter": 258.1101,
        "meta_mean_anomaly": 101.9618,
        "meta_ephemeris_type": 0,
        "meta_classification_type": "U",
        "meta_norad_cat_id": 66575,
        "meta_element_set_no": 999,
        "meta_rev_at_epoch": 553,
        "meta_bstar": 0.0013554933,
        "meta_mean_motion_dot": 0.00080126,
        "meta_mean_motion_ddot": 0,
        "tle_line1": "1 66575U 25268U   25352.57768903  .00080126  00000+0  13555-2 0  9991",
        "tle_line2": "2 66575  42.9978  86.9711 0001255 258.1101 101.9618 15.50624193  5538"
      },
      "geometry": {
        "type": "Point",
        "coordinates": [
          -163.4032130207536,
          40.824956203733926
        ]
      }
    }
  ]
}